[{"OBJECT_NAME":"CUTE-1.7+APD II (CO-65)","OBJECT_ID":"2008-021C","EPOCH":"2026-03-29T05:09:53.830368","MEAN_MOTION":15.08638044,"ECCENTRICITY":0.0007607,"INCLINATION":97.8228,"RA_OF_ASC_NODE":68.044,"ARG_OF_PERICENTER":309.0033,"MEAN_ANOMALY":51.0517,"EPHEMERIS_TYPE":0,"CLASSIFICATION_TYPE":"U","NORAD_CAT_ID":32785,"ELEMENT_SET_NO":999,"REV_AT_EPOCH":97313,"BSTAR":0.00059137,"MEAN_MOTION_DOT":9.202e-5,"MEAN_MOTION_DDOT":0},{"OBJECT_NAME":"SEEDS II (CO-66)","OBJECT_ID":"2008-021J","EPOCH":"2026-03-28T12:01:52.460832","MEAN_MOTION":15.2986394,"ECCENTRICITY":0.0001837,"INCLINATION":97.7522,"RA_OF_ASC_NODE":81.7278,"ARG_OF_PERICENTER":175.4551,"MEAN_ANOMALY":184.6705,"EPHEMERIS_TYPE":0,"CLASSIFICATION_TYPE":"U","NORAD_CAT_ID":32791,"ELEMENT_SET_NO":999,"REV_AT_EPOCH":97494,"BSTAR":0.00078688,"MEAN_MOTION_DOT":0.0002272,"MEAN_MOTION_DDOT":0},{"OBJECT_NAME":"YUBILEINY (RS30)","OBJECT_ID":"2008-025A","EPOCH":"2026-03-29T04:24:26.934912","MEAN_MOTION":12.43176873,"ECCENTRICITY":0.0020215,"INCLINATION":82.5033,"RA_OF_ASC_NODE":45.1937,"ARG_OF_PERICENTER":123.4599,"MEAN_ANOMALY":236.8417,"EPHEMERIS_TYPE":0,"CLASSIFICATION_TYPE":"U","NORAD_CAT_ID":32953,"ELEMENT_SET_NO":999,"REV_AT_EPOCH":80975,"BSTAR":0.00050774,"MEAN_MOTION_DOT":8.1e-7,"MEAN_MOTION_DDOT":0},{"OBJECT_NAME":"KKS-1 (KISEKI)","OBJECT_ID":"2009-002H","EPOCH":"2026-03-29T04:02:33.823392","MEAN_MOTION":14.82901042,"ECCENTRICITY":0.0007651,"INCLINATION":98.1185,"RA_OF_ASC_NODE":9.3608,"ARG_OF_PERICENTER":179.7014,"MEAN_ANOMALY":180.4205,"EPHEMERIS_TYPE":0,"CLASSIFICATION_TYPE":"U","NORAD_CAT_ID":33499,"ELEMENT_SET_NO":999,"REV_AT_EPOCH":92433,"BSTAR":0.00025898,"MEAN_MOTION_DOT":2.045e-5,"MEAN_MOTION_DDOT":0},{"OBJECT_NAME":"SWISSCUBE","OBJECT_ID":"2009-051B","EPOCH":"2026-03-29T04:25:28.950240","MEAN_MOTION":14.62312493,"ECCENTRICITY":0.0008021,"INCLINATION":98.4083,"RA_OF_ASC_NODE":354.6718,"ARG_OF_PERICENTER":99.0217,"MEAN_ANOMALY":261.1892,"EPHEMERIS_TYPE":0,"CLASSIFICATION_TYPE":"U","NORAD_CAT_ID":35932,"ELEMENT_SET_NO":999,"REV_AT_EPOCH":87746,"BSTAR":0.00030917,"MEAN_MOTION_DOT":1.512e-5,"MEAN_MOTION_DDOT":0},{"OBJECT_NAME":"BEESAT-1","OBJECT_ID":"2009-051C","EPOCH":"2026-03-29T03:40:05.215296","MEAN_MOTION":14.61577749,"ECCENTRICITY":0.0006362,"INCLINATION":98.4013,"RA_OF_ASC_NODE":354.4405,"ARG_OF_PERICENTER":110.1396,"MEAN_ANOMALY":250.0489,"EPHEMERIS_TYPE":0,"CLASSIFICATION_TYPE":"U","NORAD_CAT_ID":35933,"ELEMENT_SET_NO":999,"REV_AT_EPOCH":87749,"BSTAR":0.00026274,"MEAN_MOTION_DOT":1.256e-5,"MEAN_MOTION_DDOT":0},{"OBJECT_NAME":"ITUPSAT1","OBJECT_ID":"2009-051E","EPOCH":"2026-03-29T05:03:49.218912","MEAN_MOTION":14.60309071,"ECCENTRICITY":0.000845,"INCLINATION":98.41,"RA_OF_ASC_NODE":353.7747,"ARG_OF_PERICENTER":121.1104,"MEAN_ANOMALY":239.0925,"EPHEMERIS_TYPE":0,"CLASSIFICATION_TYPE":"U","NORAD_CAT_ID":35935,"ELEMENT_SET_NO":999,"REV_AT_EPOCH":87706,"BSTAR":0.00024801,"MEAN_MOTION_DOT":1.15e-5,"MEAN_MOTION_DDOT":0},{"OBJECT_NAME":"XIWANG-1 (HOPE-1)","OBJECT_ID":"2009-072B","EPOCH":"2026-03-29T03:22:44.801184","MEAN_MOTION":13.16438944,"ECCENTRICITY":0.0008112,"INCLINATION":100.3944,"RA_OF_ASC_NODE":43.2807,"ARG_OF_PERICENTER":58.8219,"MEAN_ANOMALY":301.3688,"EPHEMERIS_TYPE":0,"CLASSIFICATION_TYPE":"U","NORAD_CAT_ID":36122,"ELEMENT_SET_NO":999,"REV_AT_EPOCH":78247,"BSTAR":0.0012044,"MEAN_MOTION_DOT":4.16e-6,"MEAN_MOTION_DDOT":0},{"OBJECT_NAME":"O/OREOS (USA 219)","OBJECT_ID":"2010-062C","EPOCH":"2026-03-28T21:22:05.706048","MEAN_MOTION":14.93381659,"ECCENTRICITY":0.0016156,"INCLINATION":71.9691,"RA_OF_ASC_NODE":262.1742,"ARG_OF_PERICENTER":224.2005,"MEAN_ANOMALY":135.7876,"EPHEMERIS_TYPE":0,"CLASSIFICATION_TYPE":"U","NORAD_CAT_ID":37224,"ELEMENT_SET_NO":999,"REV_AT_EPOCH":10465,"BSTAR":0.00031897,"MEAN_MOTION_DOT":3.296e-5,"MEAN_MOTION_DDOT":0},{"OBJECT_NAME":"JUGNU","OBJECT_ID":"2011-058B","EPOCH":"2026-03-29T02:51:58.386528","MEAN_MOTION":14.13748926,"ECCENTRICITY":0.001834,"INCLINATION":19.9611,"RA_OF_ASC_NODE":74.8547,"ARG_OF_PERICENTER":272.1328,"MEAN_ANOMALY":159.2115,"EPHEMERIS_TYPE":0,"CLASSIFICATION_TYPE":"U","NORAD_CAT_ID":37839,"ELEMENT_SET_NO":999,"REV_AT_EPOCH":74768,"BSTAR":0.00010918,"MEAN_MOTION_DOT":4.77e-6,"MEAN_MOTION_DDOT":0},{"OBJECT_NAME":"SRMSAT","OBJECT_ID":"2011-058D","EPOCH":"2026-03-28T15:03:09.076032","MEAN_MOTION":14.11554455,"ECCENTRICITY":0.0011914,"INCLINATION":19.9709,"RA_OF_ASC_NODE":187.0799,"ARG_OF_PERICENTER":37.8808,"MEAN_ANOMALY":350.3563,"EPHEMERIS_TYPE":0,"CLASSIFICATION_TYPE":"U","NORAD_CAT_ID":37841,"ELEMENT_SET_NO":999,"REV_AT_EPOCH":74642,"BSTAR":8.4528e-5,"MEAN_MOTION_DOT":4.21e-6,"MEAN_MOTION_DDOT":0},{"OBJECT_NAME":"STRAND-1","OBJECT_ID":"2013-009E","EPOCH":"2026-03-28T18:44:20.090112","MEAN_MOTION":14.37110554,"ECCENTRICITY":0.00097928,"INCLINATION":98.3903,"RA_OF_ASC_NODE":269.9991,"ARG_OF_PERICENTER":109.4666,"MEAN_ANOMALY":250.758,"EPHEMERIS_TYPE":0,"CLASSIFICATION_TYPE":"U","NORAD_CAT_ID":39090,"ELEMENT_SET_NO":999,"REV_AT_EPOCH":68551,"BSTAR":0.00013859758,"MEAN_MOTION_DOT":3.69e-6,"MEAN_MOTION_DDOT":0},{"OBJECT_NAME":"ZACUBE-1 (TSHEPISOSAT)","OBJECT_ID":"2013-066B","EPOCH":"2026-03-29T03:17:09.015360","MEAN_MOTION":15.00497521,"ECCENTRICITY":0.0044615,"INCLINATION":97.8137,"RA_OF_ASC_NODE":50.055,"ARG_OF_PERICENTER":156.4937,"MEAN_ANOMALY":203.8338,"EPHEMERIS_TYPE":0,"CLASSIFICATION_TYPE":"U","NORAD_CAT_ID":39417,"ELEMENT_SET_NO":999,"REV_AT_EPOCH":66872,"BSTAR":0.00040731,"MEAN_MOTION_DOT":5.177e-5,"MEAN_MOTION_DDOT":0},{"OBJECT_NAME":"GOMX-1","OBJECT_ID":"2013-066Q","EPOCH":"2026-03-29T04:01:02.824320","MEAN_MOTION":14.69169369,"ECCENTRICITY":0.0128761,"INCLINATION":97.6557,"RA_OF_ASC_NODE":293.6576,"ARG_OF_PERICENTER":335.1371,"MEAN_ANOMALY":24.3666,"EPHEMERIS_TYPE":0,"CLASSIFICATION_TYPE":"U","NORAD_CAT_ID":39430,"ELEMENT_SET_NO":999,"REV_AT_EPOCH":65816,"BSTAR":0.00026646,"MEAN_MOTION_DOT":1.727e-5,"MEAN_MOTION_DDOT":0},{"OBJECT_NAME":"CUBEBUG-2 (LO-74)","OBJECT_ID":"2013-066AA","EPOCH":"2026-03-29T03:10:57.067680","MEAN_MOTION":14.93170775,"ECCENTRICITY":0.0056644,"INCLINATION":97.8831,"RA_OF_ASC_NODE":36.8418,"ARG_OF_PERICENTER":293.6765,"MEAN_ANOMALY":65.8516,"EPHEMERIS_TYPE":0,"CLASSIFICATION_TYPE":"U","NORAD_CAT_ID":39440,"ELEMENT_SET_NO":999,"REV_AT_EPOCH":66504,"BSTAR":0.00058393,"MEAN_MOTION_DOT":6.229e-5,"MEAN_MOTION_DDOT":0},{"OBJECT_NAME":"FUNCUBE-1 (AO-73)","OBJECT_ID":"2013-066AE","EPOCH":"2026-03-29T03:33:35.185824","MEAN_MOTION":15.08248025,"ECCENTRICITY":0.0038894,"INCLINATION":97.8202,"RA_OF_ASC_NODE":58.0254,"ARG_OF_PERICENTER":114.7543,"MEAN_ANOMALY":245.774,"EPHEMERIS_TYPE":0,"CLASSIFICATION_TYPE":"U","NORAD_CAT_ID":39444,"ELEMENT_SET_NO":999,"REV_AT_EPOCH":66759,"BSTAR":0.00063794,"MEAN_MOTION_DOT":9.994e-5,"MEAN_MOTION_DDOT":0},{"OBJECT_NAME":"UWE-3","OBJECT_ID":"2013-066AG","EPOCH":"2026-03-28T20:32:03.082272","MEAN_MOTION":14.96371134,"ECCENTRICITY":0.00484132,"INCLINATION":97.8615,"RA_OF_ASC_NODE":43.468,"ARG_OF_PERICENTER":226.6001,"MEAN_ANOMALY":133.1185,"EPHEMERIS_TYPE":0,"CLASSIFICATION_TYPE":"U","NORAD_CAT_ID":39446,"ELEMENT_SET_NO":999,"REV_AT_EPOCH":66556,"BSTAR":0.00037941568,"MEAN_MOTION_DOT":4.336e-5,"MEAN_MOTION_DDOT":0}]
